[{"OBJECT_NAME":"STARLINK-35737","OBJECT_ID":"2025-244P","EPOCH":"2026-03-09T16:53:28.367520","MEAN_MOTION":15.3017748,"ECCENTRICITY":0.00010124,"INCLINATION":53.1593,"RA_OF_ASC_NODE":229.7067,"ARG_OF_PERICENTER":58.869,"MEAN_ANOMALY":301.241,"EPHEMERIS_TYPE":0,"CLASSIFICATION_TYPE":"U","NORAD_CAT_ID":66219,"ELEMENT_SET_NO":999,"REV_AT_EPOCH":2166,"BSTAR":0.00098589878,"MEAN_MOTION_DOT":0.00028934,"MEAN_MOTION_DDOT":0},{"OBJECT_NAME":"OBJECT D","OBJECT_ID":"2021-102D","EPOCH":"2026-03-09T14:47:14.426880","MEAN_MOTION":15.2846442,"ECCENTRICITY":0.0009157,"INCLINATION":97.3342,"RA_OF_ASC_NODE":112.2633,"ARG_OF_PERICENTER":187.6206,"MEAN_ANOMALY":172.4897,"EPHEMERIS_TYPE":0,"CLASSIFICATION_TYPE":"U","NORAD_CAT_ID":49398,"ELEMENT_SET_NO":999,"REV_AT_EPOCH":23880,"BSTAR":0.00046011,"MEAN_MOTION_DOT":0.00012697,"MEAN_MOTION_DDOT":0}]
